[{"OBJECT_NAME":"STARLINK-5772","OBJECT_ID":"2023-042AQ","EPOCH":"2026-03-19T06:00:02.000160","MEAN_MOTION":15.16595603,"ECCENTRICITY":0.00017481,"INCLINATION":42.9992,"RA_OF_ASC_NODE":350.5153,"ARG_OF_PERICENTER":279.2768,"MEAN_ANOMALY":162.6167,"EPHEMERIS_TYPE":0,"CLASSIFICATION_TYPE":"U","NORAD_CAT_ID":56024,"ELEMENT_SET_NO":999,"REV_AT_EPOCH":567,"BSTAR":0.0042506006,"MEAN_MOTION_DOT":0.00085337,"MEAN_MOTION_DDOT":0},{"OBJECT_NAME":"STARLINK-5766","OBJECT_ID":"2023-042AR","EPOCH":"2026-03-19T06:00:02.000160","MEAN_MOTION":15.15736557,"ECCENTRICITY":9.817e-5,"INCLINATION":43.0004,"RA_OF_ASC_NODE":351.031,"ARG_OF_PERICENTER":219.0855,"MEAN_ANOMALY":5.8921,"EPHEMERIS_TYPE":0,"CLASSIFICATION_TYPE":"U","NORAD_CAT_ID":56025,"ELEMENT_SET_NO":999,"REV_AT_EPOCH":577,"BSTAR":0.0043061916,"MEAN_MOTION_DOT":0.00084349,"MEAN_MOTION_DDOT":0},{"OBJECT_NAME":"STARLINK-5770","OBJECT_ID":"2023-042AS","EPOCH":"2026-03-19T06:00:02.000160","MEAN_MOTION":15.18019727,"ECCENTRICITY":9.385e-5,"INCLINATION":43.0001,"RA_OF_ASC_NODE":350.2157,"ARG_OF_PERICENTER":278.1511,"MEAN_ANOMALY":292.2952,"EPHEMERIS_TYPE":0,"CLASSIFICATION_TYPE":"U","NORAD_CAT_ID":56026,"ELEMENT_SET_NO":999,"REV_AT_EPOCH":577,"BSTAR":0.0042738607,"MEAN_MOTION_DOT":0.00089441,"MEAN_MOTION_DDOT":0},{"OBJECT_NAME":"STARLINK-5777","OBJECT_ID":"2023-042AT","EPOCH":"2026-03-19T06:00:02.000160","MEAN_MOTION":15.17823699,"ECCENTRICITY":8.551e-5,"INCLINATION":43.0008,"RA_OF_ASC_NODE":350.3964,"ARG_OF_PERICENTER":316.8541,"MEAN_ANOMALY":178.7074,"EPHEMERIS_TYPE":0,"CLASSIFICATION_TYPE":"U","NORAD_CAT_ID":56027,"ELEMENT_SET_NO":999,"REV_AT_EPOCH":577,"BSTAR":0.0042954354,"MEAN_MOTION_DOT":0.00089386,"MEAN_MOTION_DDOT":0},{"OBJECT_NAME":"STARLINK-5779","OBJECT_ID":"2023-042AU","EPOCH":"2026-03-19T06:00:02.000160","MEAN_MOTION":15.14840961,"ECCENTRICITY":0.00017802,"INCLINATION":43.0007,"RA_OF_ASC_NODE":350.4669,"ARG_OF_PERICENTER":252.0073,"MEAN_ANOMALY":210.0197,"EPHEMERIS_TYPE":0,"CLASSIFICATION_TYPE":"U","NORAD_CAT_ID":56028,"ELEMENT_SET_NO":999,"REV_AT_EPOCH":567,"BSTAR":0.0046033576,"MEAN_MOTION_DOT":0.00087965,"MEAN_MOTION_DDOT":0},{"OBJECT_NAME":"STARLINK-5774","OBJECT_ID":"2023-042AV","EPOCH":"2026-03-19T06:00:02.000160","MEAN_MOTION":15.17712222,"ECCENTRICITY":0.00020907,"INCLINATION":43.0005,"RA_OF_ASC_NODE":350.6033,"ARG_OF_PERICENTER":290.1863,"MEAN_ANOMALY":116.0359,"EPHEMERIS_TYPE":0,"CLASSIFICATION_TYPE":"U","NORAD_CAT_ID":56029,"ELEMENT_SET_NO":999,"REV_AT_EPOCH":577,"BSTAR":0.0060497984,"MEAN_MOTION_DOT":0.00126233,"MEAN_MOTION_DDOT":0},{"OBJECT_NAME":"STARLINK-5781","OBJECT_ID":"2023-042AW","EPOCH":"2026-03-19T06:00:02.000160","MEAN_MOTION":15.14782711,"ECCENTRICITY":0.00019584,"INCLINATION":43.0005,"RA_OF_ASC_NODE":350.6183,"ARG_OF_PERICENTER":273.2633,"MEAN_ANOMALY":122.184,"EPHEMERIS_TYPE":0,"CLASSIFICATION_TYPE":"U","NORAD_CAT_ID":56030,"ELEMENT_SET_NO":999,"REV_AT_EPOCH":572,"BSTAR":0.0042625171,"MEAN_MOTION_DOT":0.00081224,"MEAN_MOTION_DDOT":0},{"OBJECT_NAME":"STARLINK-5785","OBJECT_ID":"2023-042AX","EPOCH":"2026-03-19T06:00:02.000160","MEAN_MOTION":15.16410015,"ECCENTRICITY":5.465e-5,"INCLINATION":43.0008,"RA_OF_ASC_NODE":350.3672,"ARG_OF_PERICENTER":312.0503,"MEAN_ANOMALY":194.2501,"EPHEMERIS_TYPE":0,"CLASSIFICATION_TYPE":"U","NORAD_CAT_ID":56031,"ELEMENT_SET_NO":999,"REV_AT_EPOCH":572,"BSTAR":0.0043916444,"MEAN_MOTION_DOT":0.00087738,"MEAN_MOTION_DDOT":0},{"OBJECT_NAME":"STARLINK-5786","OBJECT_ID":"2023-042AY","EPOCH":"2026-03-19T06:00:02.000160","MEAN_MOTION":15.14355753,"ECCENTRICITY":0.00012448,"INCLINATION":43.0014,"RA_OF_ASC_NODE":350.3263,"ARG_OF_PERICENTER":264.8181,"MEAN_ANOMALY":255.9386,"EPHEMERIS_TYPE":0,"CLASSIFICATION_TYPE":"U","NORAD_CAT_ID":56032,"ELEMENT_SET_NO":999,"REV_AT_EPOCH":577,"BSTAR":0.0045955038,"MEAN_MOTION_DOT":0.00086599,"MEAN_MOTION_DDOT":0},{"OBJECT_NAME":"STARLINK-5782","OBJECT_ID":"2023-042BA","EPOCH":"2026-03-19T06:00:02.000160","MEAN_MOTION":15.1304878,"ECCENTRICITY":0.00014642,"INCLINATION":43.0005,"RA_OF_ASC_NODE":350.4231,"ARG_OF_PERICENTER":288.0702,"MEAN_ANOMALY":192.3266,"EPHEMERIS_TYPE":0,"CLASSIFICATION_TYPE":"U","NORAD_CAT_ID":56034,"ELEMENT_SET_NO":999,"REV_AT_EPOCH":577,"BSTAR":0.0047886176,"MEAN_MOTION_DOT":0.00086991,"MEAN_MOTION_DDOT":0},{"OBJECT_NAME":"STARLINK-5792","OBJECT_ID":"2023-042BB","EPOCH":"2026-03-19T06:00:02.000160","MEAN_MOTION":15.158295,"ECCENTRICITY":0.00017224,"INCLINATION":43.0003,"RA_OF_ASC_NODE":350.5184,"ARG_OF_PERICENTER":265.6072,"MEAN_ANOMALY":170.6465,"EPHEMERIS_TYPE":0,"CLASSIFICATION_TYPE":"U","NORAD_CAT_ID":56035,"ELEMENT_SET_NO":999,"REV_AT_EPOCH":572,"BSTAR":0.0040919432,"MEAN_MOTION_DOT":0.00080309,"MEAN_MOTION_DDOT":0},{"OBJECT_NAME":"STARLINK-5790","OBJECT_ID":"2023-042BC","EPOCH":"2026-03-19T06:00:02.000160","MEAN_MOTION":15.13603456,"ECCENTRICITY":0.00012519,"INCLINATION":43.0009,"RA_OF_ASC_NODE":350.5225,"ARG_OF_PERICENTER":273.1523,"MEAN_ANOMALY":164.6178,"EPHEMERIS_TYPE":0,"CLASSIFICATION_TYPE":"U","NORAD_CAT_ID":56036,"ELEMENT_SET_NO":999,"REV_AT_EPOCH":567,"BSTAR":0.002896423,"MEAN_MOTION_DOT":0.00053101,"MEAN_MOTION_DDOT":0},{"OBJECT_NAME":"STARLINK-5758","OBJECT_ID":"2023-042BD","EPOCH":"2026-03-19T06:00:02.000160","MEAN_MOTION":15.23233064,"ECCENTRICITY":8.836e-5,"INCLINATION":43.0001,"RA_OF_ASC_NODE":336.4942,"ARG_OF_PERICENTER":307.9858,"MEAN_ANOMALY":184.4849,"EPHEMERIS_TYPE":0,"CLASSIFICATION_TYPE":"U","NORAD_CAT_ID":56037,"ELEMENT_SET_NO":999,"REV_AT_EPOCH":577,"BSTAR":0.0031395274,"MEAN_MOTION_DOT":0.00076339,"MEAN_MOTION_DDOT":0},{"OBJECT_NAME":"STARLINK-5793","OBJECT_ID":"2023-042BE","EPOCH":"2026-03-19T06:00:02.000160","MEAN_MOTION":15.13096611,"ECCENTRICITY":0.00014418,"INCLINATION":43.0011,"RA_OF_ASC_NODE":350.39,"ARG_OF_PERICENTER":289.4849,"MEAN_ANOMALY":204.694,"EPHEMERIS_TYPE":0,"CLASSIFICATION_TYPE":"U","NORAD_CAT_ID":56038,"ELEMENT_SET_NO":999,"REV_AT_EPOCH":577,"BSTAR":0.0047874189,"MEAN_MOTION_DOT":0.00087087,"MEAN_MOTION_DDOT":0},{"OBJECT_NAME":"STARLINK-5795","OBJECT_ID":"2023-042BF","EPOCH":"2026-03-19T06:00:02.000160","MEAN_MOTION":15.21757295,"ECCENTRICITY":0.00015907,"INCLINATION":42.9998,"RA_OF_ASC_NODE":336.5767,"ARG_OF_PERICENTER":298.9761,"MEAN_ANOMALY":157.9985,"EPHEMERIS_TYPE":0,"CLASSIFICATION_TYPE":"U","NORAD_CAT_ID":56039,"ELEMENT_SET_NO":999,"REV_AT_EPOCH":577,"BSTAR":0.0032083884,"MEAN_MOTION_DOT":0.00074664,"MEAN_MOTION_DDOT":0},{"OBJECT_NAME":"STARLINK-5798","OBJECT_ID":"2023-042BG","EPOCH":"2026-03-19T06:00:02.000160","MEAN_MOTION":15.20976123,"ECCENTRICITY":0.00019466,"INCLINATION":42.9998,"RA_OF_ASC_NODE":336.7442,"ARG_OF_PERICENTER":269.4676,"MEAN_ANOMALY":114.4251,"EPHEMERIS_TYPE":0,"CLASSIFICATION_TYPE":"U","NORAD_CAT_ID":56040,"ELEMENT_SET_NO":999,"REV_AT_EPOCH":577,"BSTAR":0.0030993382,"MEAN_MOTION_DOT":0.00070438,"MEAN_MOTION_DDOT":0}]
