STARLINK-5772           
1 56024U 23042AQ  26078.25002315  .00085337  00000+0  42506-2 0  9993
2 56024  42.9992 350.5153 0001748 279.2768 162.6167 15.16595603  5675
STARLINK-5766           
1 56025U 23042AR  26078.25002315  .00084349  00000+0  43062-2 0  9994
2 56025  43.0004 351.0310 0000981 219.0855   5.8921 15.15736557  5771
STARLINK-5770           
1 56026U 23042AS  26078.25002315  .00089441  00000+0  42739-2 0  9993
2 56026  43.0001 350.2157 0000938 278.1511 292.2952 15.18019727  5778
STARLINK-5777           
1 56027U 23042AT  26078.25002315  .00089386  00000+0  42954-2 0  9991
2 56027  43.0008 350.3964 0000855 316.8541 178.7074 15.17823699  5777
STARLINK-5779           
1 56028U 23042AU  26078.25002315  .00087965  00000+0  46034-2 0  9996
2 56028  43.0007 350.4669 0001780 252.0073 210.0197 15.14840961  5672
STARLINK-5774           
1 56029U 23042AV  26078.25002315  .00126233  00000+0  60498-2 0  9999
2 56029  43.0005 350.6033 0002090 290.1863 116.0359 15.17712222  5770
STARLINK-5781           
1 56030U 23042AW  26078.25002315  .00081224  00000+0  42625-2 0  9993
2 56030  43.0005 350.6183 0001958 273.2633 122.1840 15.14782711  5722
STARLINK-5785           
1 56031U 23042AX  26078.25002315  .00087738  00000+0  43916-2 0  9994
2 56031  43.0008 350.3672 0000546 312.0503 194.2501 15.16410015  5727
STARLINK-5786           
1 56032U 23042AY  26078.25002315  .00086599  00000+0  45955-2 0  9994
2 56032  43.0014 350.3263 0001244 264.8181 255.9386 15.14355753  5779
STARLINK-5782           
1 56034U 23042BA  26078.25002315  .00086991  00000+0  47886-2 0  9997
2 56034  43.0005 350.4231 0001464 288.0702 192.3266 15.13048780  5777
STARLINK-5792           
1 56035U 23042BB  26078.25002315  .00080309  00000+0  40919-2 0  9995
2 56035  43.0003 350.5184 0001722 265.6072 170.6465 15.15829500  5726
STARLINK-5790           
1 56036U 23042BC  26078.25002315  .00053101  00000+0  28964-2 0  9992
2 56036  43.0009 350.5225 0001251 273.1523 164.6178 15.13603456  5677
STARLINK-5758           
1 56037U 23042BD  26078.25002315  .00076339  00000+0  31395-2 0  9993
2 56037  43.0001 336.4942 0000883 307.9858 184.4849 15.23233064  5777
STARLINK-5793           
1 56038U 23042BE  26078.25002315  .00087087  00000+0  47874-2 0  9995
2 56038  43.0011 350.3900 0001441 289.4849 204.6940 15.13096611  5774
STARLINK-5795           
1 56039U 23042BF  26078.25002315  .00074664  00000+0  32084-2 0  9990
2 56039  42.9998 336.5767 0001590 298.9761 157.9985 15.21757295  5777
STARLINK-5798           
1 56040U 23042BG  26078.25002315  .00070438  00000+0  30993-2 0  9994
2 56040  42.9998 336.7442 0001946 269.4676 114.4251 15.20976123  5770
